0 SL-8 R/B
1 17067U 86086B   13281.87295990  .00000130  00000-0  11481-3 0  2729
2 17067 082.9434 073.4677 0035280 148.8427 318.2446 13.77519478352245
0 SL-8 R/B
1 17067U 86086B   13283.98491780  .00000145  00000-0  12976-3 0  2735
2 17067 082.9438 071.8965 0035386 143.0690 351.4510 13.77520694352532
0 SL-8 R/B
1 17067U 86086B   13286.43811162  .00000062  00000-0  46484-4 0  2749
2 17067 082.9444 070.0716 0035489 136.4152 276.7991 13.77520924352872
0 SL-8 R/B
1 17067U 86086B   13288.46752108  .00000020  00000-0  46171-5 0  2757
2 17067 082.9449 068.5619 0035522 130.9741 260.5455 13.77520619353151
0 SL-8 R/B
1 17067U 86086B   13290.50378111  .00000044  00000-0  27901-4 0  2769
2 17067 082.9453 067.0474 0035545 125.5131 278.2670 13.77520586353436
0 SL-8 R/B
1 17067U 86086B   13292.85239389  .00000143  00000-0  12750-3 0  2778
2 17067 082.9454 065.3009 0035589 119.1872 044.9627 13.77521264353750
0 SL-8 R/B
1 17067U 86086B   13294.87522605  .00000143  00000-0  12703-3 0  2787
2 17067 082.9455 063.7965 0035632 113.7216 356.1413 13.77521784354035
